TEVEL2-4                
1 63213U 25052D   26079.21592232  .00011615  00000+0  38616-3 0  9999
2 63213  97.4009 335.6228 0004670  74.9438 285.2320 15.31327216 56483
TEVEL2-5                
1 63214U 25052E   26079.94658081  .00017309  00000+0  57563-3 0  9993
2 63214  97.4003 336.3222 0004645  73.7501 286.4251 15.31224339 56590
TEVEL2-6                
1 63215U 25052F   26079.69529831  .00017939  00000+0  59725-3 0  9997
2 63215  97.4008 336.0573 0004761  74.4573 285.7193 15.31178880 56550
TEVEL2-1                
1 63217U 25052H   26079.23901097  .00011385  00000+0  38559-3 0  9998
2 63217  97.3984 335.3235 0004920  83.5884 276.5917 15.30729460 56472
TEVEL2-3                
1 63218U 25052J   26079.23633660  .00011256  00000+0  38082-3 0  9995
2 63218  97.3986 335.3335 0005050  84.2992 275.8825 15.30766744 56475
TEVEL2-2                
1 63219U 25052K   26079.95872083  .00017049  00000+0  57525-3 0  9998
2 63219  97.3982 336.0420 0004907  82.7993 277.3805 15.30756820 56580
TEVEL2-9                
1 63237U 25052AD  26079.50174776  .00015189  00000+0  54088-3 0  9997
2 63237  97.4047 335.1368 0008508  94.6648 265.5564 15.29002707 56468
TEVEL2-7                
1 63238U 25052AE  26079.65852299  .00016314  00000+0  58459-3 0  9994
2 63238  97.4052 335.2416 0008581  94.8411 265.3809 15.28781753 56487
TEVEL2-8                
1 63239U 25052AF  26079.14205889  .00009955  00000+0  35848-3 0  9996
2 63239  97.4046 334.7083 0008584  96.4352 263.7866 15.28742475 56405
HADES-ICM               
1 63492U 25052BN  26079.67667713  .00156463  00000+0  19023-2 0  9996
2 63492  97.3926 340.5502 0009028  90.5409 269.6882 15.59991840 56853
INNOSAT 16 (RS92S7)     
1 64878U 25155C   26079.94230597  .00006239  00000+0  25741-3 0  9995
2 64878  97.4488  47.4674 0012157 129.3796 230.8520 15.24342229 67221
GEOSCAN 6 (RS92S6)      
1 64879U 25155D   26079.91248203  .00011409  00000+0  41650-3 0  9998
2 64879  97.4485  48.2867 0009879 121.1223 239.0987 15.28246239 67275
GEOSCAN 1 (RS92S1)      
1 64880U 25155E   26079.94508970  .00012230  00000+0  44027-3 0  9997
2 64880  97.4483  48.4004 0009833 121.2294 238.9911 15.28687619 67286
239ALFEROV (RS61S)      
1 64881U 25155F   26079.89388066  .00014938  00000+0  51136-3 0  9990
2 64881  97.4488  48.6502 0009606 119.9206 240.2990 15.30287162 67298
GEOSCAN 2 (RS92S2)      
1 64890U 25155Q   26079.95522860  .00011879  00000+0  42388-3 0  9999
2 64890  97.4482  48.5260 0009403 110.1588 250.0664 15.28988356 67290
GEOSCAN 5 (RS92S5)      
1 64891U 25155R   26079.90160880  .00015311  00000+0  51884-3 0  9991
2 64891  97.4481  48.7607 0008298 123.5968 236.6066 15.30621263 67300
GEOSCAN 4 (RS92S4)      
1 64892U 25155S   26079.95859422  .00016042  00000+0  54163-3 0  9999
2 64892  97.4484  48.8447 0008337 123.8530 236.3505 15.30729669 67314
GEOSCAN 3 (RS92S3)      
1 64893U 25155T   26079.92650946  .00018988  00000+0  61329-3 0  9990
2 64893  97.4475  49.0255 0008103 124.2670 235.9340 15.32125660 67322
INNOSAT 3 (RS92S0)      
1 64894U 25155U   26079.92145962  .00036777  00000+0  99804-3 0  9993
2 64894  97.4444  49.7545 0008060 120.5487 239.6554 15.37484713 67370
KNACKSAT-2              
1 67683U 98067XZ  26079.92936461  .00036557  00000+0  58559-3 0  9994
2 67683  51.6324  15.9635 0009731 225.7971 134.2220 15.52692133  6530
